MERIDIAN-M 21L          
1 68571U 26071A   26104.39797982  .00000489  00000+0  80352-2 0  9990
2 68571  62.7790 237.3403 7234646 284.9939  10.8160  1.98596107   235
KUIPER-00131            
1 68573U 26072A   26105.22569766  .00006345  00000+0  18221-3 0  9997
2 68573  51.8693 121.4417 0006726 140.5051 219.6427 15.37137889  1699
KUIPER-00189            
1 68574U 26072B   26105.25002315 -.00054021  00000+0 -18929-2 0  9993
2 68574  51.8796 121.3229 0001154  64.6466  56.1929 15.28988423  2195
KUIPER-00192            
1 68575U 26072C   26105.28737010  .00009363  00000+0  25981-3 0  9998
2 68575  51.8744 121.1034 0005065 131.2095 228.9329 15.37611297  1706
KUIPER-00193            
1 68576U 26072D   26105.28607795  .00009595  00000+0  26570-3 0  9997
2 68576  51.8748 121.0946 0003357 117.7303 242.4025 15.37648930  1703
KUIPER-00194            
1 68577U 26072E   26105.21842518  .00006467  00000+0  18012-3 0  9992
2 68577  51.8758 121.3882 0002905 113.4503 246.6789 15.38072031  1695
KUIPER-00229            
1 68578U 26072F   26105.22689655  .00006180  00000+0  17906-3 0  9998
2 68578  51.8705 121.4493 0007560 136.8881 223.2699 15.36904037  1696
KUIPER-00230            
1 68579U 26072G   26105.28048406 -.00010352  00000+0 -25928-3 0  9999
2 68579  51.8760 121.0521 0001597  93.4286 266.6884 15.38388109  1704
KUIPER-00231            
1 68580U 26072H   26105.28416984  .00009723  00000+0  26637-3 0  9997
2 68580  51.8741 121.0837 0002767 116.4745 243.6526 15.37967964  1700
KUIPER-00234            
1 68581U 26072J   26105.28177447  .00009787  00000+0  26439-3 0  9996
2 68581  51.8751 121.0666 0002285 102.7551 257.3692 15.38395133  1700
KUIPER-00236            
1 68582U 26072K   26105.28216913  .00009737  00000+0  26393-3 0  9993
2 68582  51.8754 121.0675 0002718 106.8641 253.2645 15.38297084  1709
KUIPER-00244            
1 68583U 26072L   26105.28513609  .00009938  00000+0  27247-3 0  9998
2 68583  51.8752 121.0875 0003987 130.1674 229.9663 15.37913248  1701
KUIPER-00253            
1 68584U 26072M   26105.22316252  .00009042  00000+0  25228-3 0  9991
2 68584  51.8713 121.4254 0005590 138.2456 221.8959 15.37486403  1698
KUIPER-00254            
1 68585U 26072N   26105.22726497  .00006341  00000+0  18358-3 0  9993
2 68585  51.8717 121.4515 0007625 143.6573 216.4933 15.36882979  1693
KUIPER-00263            
1 68586U 26072P   26105.28073198  .00010659  00000+0  28634-3 0  9998
2 68586  51.8757 121.0554 0002133  75.7653 284.3572 15.38466012  1703
