[{"OBJECT_NAME":"MERIDIAN-M 21L","OBJECT_ID":"2026-071A","EPOCH":"2026-04-14T09:33:05.456448","MEAN_MOTION":1.98596107,"ECCENTRICITY":0.72346467,"INCLINATION":62.779,"RA_OF_ASC_NODE":237.3403,"ARG_OF_PERICENTER":284.9939,"MEAN_ANOMALY":10.816,"EPHEMERIS_TYPE":0,"CLASSIFICATION_TYPE":"U","NORAD_CAT_ID":68571,"ELEMENT_SET_NO":999,"REV_AT_EPOCH":23,"BSTAR":0.0080351969,"MEAN_MOTION_DOT":4.89e-6,"MEAN_MOTION_DDOT":0},{"OBJECT_NAME":"KUIPER-00131","OBJECT_ID":"2026-072A","EPOCH":"2026-04-15T05:25:00.277824","MEAN_MOTION":15.37137889,"ECCENTRICITY":0.00067262,"INCLINATION":51.8693,"RA_OF_ASC_NODE":121.4417,"ARG_OF_PERICENTER":140.5051,"MEAN_ANOMALY":219.6427,"EPHEMERIS_TYPE":0,"CLASSIFICATION_TYPE":"U","NORAD_CAT_ID":68573,"ELEMENT_SET_NO":999,"REV_AT_EPOCH":169,"BSTAR":0.00018221403,"MEAN_MOTION_DOT":6.345e-5,"MEAN_MOTION_DDOT":0},{"OBJECT_NAME":"KUIPER-00189","OBJECT_ID":"2026-072B","EPOCH":"2026-04-15T06:00:02.000160","MEAN_MOTION":15.28988423,"ECCENTRICITY":0.00011547,"INCLINATION":51.8796,"RA_OF_ASC_NODE":121.3229,"ARG_OF_PERICENTER":64.6466,"MEAN_ANOMALY":56.1929,"EPHEMERIS_TYPE":0,"CLASSIFICATION_TYPE":"U","NORAD_CAT_ID":68574,"ELEMENT_SET_NO":999,"REV_AT_EPOCH":219,"BSTAR":-0.0018929343,"MEAN_MOTION_DOT":-0.00054021,"MEAN_MOTION_DDOT":0},{"OBJECT_NAME":"KUIPER-00192","OBJECT_ID":"2026-072C","EPOCH":"2026-04-15T06:53:48.776640","MEAN_MOTION":15.37611297,"ECCENTRICITY":0.00050657,"INCLINATION":51.8744,"RA_OF_ASC_NODE":121.1034,"ARG_OF_PERICENTER":131.2095,"MEAN_ANOMALY":228.9329,"EPHEMERIS_TYPE":0,"CLASSIFICATION_TYPE":"U","NORAD_CAT_ID":68575,"ELEMENT_SET_NO":999,"REV_AT_EPOCH":170,"BSTAR":0.00025981455,"MEAN_MOTION_DOT":9.363e-5,"MEAN_MOTION_DDOT":0},{"OBJECT_NAME":"KUIPER-00193","OBJECT_ID":"2026-072D","EPOCH":"2026-04-15T06:51:57.134880","MEAN_MOTION":15.3764893,"ECCENTRICITY":0.00033579,"INCLINATION":51.8748,"RA_OF_ASC_NODE":121.0946,"ARG_OF_PERICENTER":117.7303,"MEAN_ANOMALY":242.4025,"EPHEMERIS_TYPE":0,"CLASSIFICATION_TYPE":"U","NORAD_CAT_ID":68576,"ELEMENT_SET_NO":999,"REV_AT_EPOCH":170,"BSTAR":0.00026570426,"MEAN_MOTION_DOT":9.595e-5,"MEAN_MOTION_DDOT":0},{"OBJECT_NAME":"KUIPER-00194","OBJECT_ID":"2026-072E","EPOCH":"2026-04-15T05:14:31.935552","MEAN_MOTION":15.38072031,"ECCENTRICITY":0.00029056,"INCLINATION":51.8758,"RA_OF_ASC_NODE":121.3882,"ARG_OF_PERICENTER":113.4503,"MEAN_ANOMALY":246.6789,"EPHEMERIS_TYPE":0,"CLASSIFICATION_TYPE":"U","NORAD_CAT_ID":68577,"ELEMENT_SET_NO":999,"REV_AT_EPOCH":169,"BSTAR":0.00018011929,"MEAN_MOTION_DOT":6.467e-5,"MEAN_MOTION_DDOT":0},{"OBJECT_NAME":"KUIPER-00229","OBJECT_ID":"2026-072F","EPOCH":"2026-04-15T05:26:43.861920","MEAN_MOTION":15.36904037,"ECCENTRICITY":0.00075603,"INCLINATION":51.8705,"RA_OF_ASC_NODE":121.4493,"ARG_OF_PERICENTER":136.8881,"MEAN_ANOMALY":223.2699,"EPHEMERIS_TYPE":0,"CLASSIFICATION_TYPE":"U","NORAD_CAT_ID":68578,"ELEMENT_SET_NO":999,"REV_AT_EPOCH":169,"BSTAR":0.00017905847,"MEAN_MOTION_DOT":6.18e-5,"MEAN_MOTION_DDOT":0},{"OBJECT_NAME":"KUIPER-00230","OBJECT_ID":"2026-072G","EPOCH":"2026-04-15T06:43:53.822784","MEAN_MOTION":15.38388109,"ECCENTRICITY":0.00015973,"INCLINATION":51.876,"RA_OF_ASC_NODE":121.0521,"ARG_OF_PERICENTER":93.4286,"MEAN_ANOMALY":266.6884,"EPHEMERIS_TYPE":0,"CLASSIFICATION_TYPE":"U","NORAD_CAT_ID":68579,"ELEMENT_SET_NO":999,"REV_AT_EPOCH":170,"BSTAR":-0.00025927567,"MEAN_MOTION_DOT":-0.00010352,"MEAN_MOTION_DDOT":0},{"OBJECT_NAME":"KUIPER-00231","OBJECT_ID":"2026-072H","EPOCH":"2026-04-15T06:49:12.274176","MEAN_MOTION":15.37967964,"ECCENTRICITY":0.00027679,"INCLINATION":51.8741,"RA_OF_ASC_NODE":121.0837,"ARG_OF_PERICENTER":116.4745,"MEAN_ANOMALY":243.6526,"EPHEMERIS_TYPE":0,"CLASSIFICATION_TYPE":"U","NORAD_CAT_ID":68580,"ELEMENT_SET_NO":999,"REV_AT_EPOCH":170,"BSTAR":0.00026636815,"MEAN_MOTION_DOT":9.723e-5,"MEAN_MOTION_DDOT":0},{"OBJECT_NAME":"KUIPER-00234","OBJECT_ID":"2026-072J","EPOCH":"2026-04-15T06:45:45.314208","MEAN_MOTION":15.38395133,"ECCENTRICITY":0.00022853,"INCLINATION":51.8751,"RA_OF_ASC_NODE":121.0666,"ARG_OF_PERICENTER":102.7551,"MEAN_ANOMALY":257.3692,"EPHEMERIS_TYPE":0,"CLASSIFICATION_TYPE":"U","NORAD_CAT_ID":68581,"ELEMENT_SET_NO":999,"REV_AT_EPOCH":170,"BSTAR":0.00026439454,"MEAN_MOTION_DOT":9.787e-5,"MEAN_MOTION_DDOT":0},{"OBJECT_NAME":"KUIPER-00236","OBJECT_ID":"2026-072K","EPOCH":"2026-04-15T06:46:19.412832","MEAN_MOTION":15.38297084,"ECCENTRICITY":0.00027183,"INCLINATION":51.8754,"RA_OF_ASC_NODE":121.0675,"ARG_OF_PERICENTER":106.8641,"MEAN_ANOMALY":253.2645,"EPHEMERIS_TYPE":0,"CLASSIFICATION_TYPE":"U","NORAD_CAT_ID":68582,"ELEMENT_SET_NO":999,"REV_AT_EPOCH":170,"BSTAR":0.00026393012,"MEAN_MOTION_DOT":9.737e-5,"MEAN_MOTION_DDOT":0},{"OBJECT_NAME":"KUIPER-00244","OBJECT_ID":"2026-072L","EPOCH":"2026-04-15T06:50:35.758176","MEAN_MOTION":15.37913248,"ECCENTRICITY":0.0003987,"INCLINATION":51.8752,"RA_OF_ASC_NODE":121.0875,"ARG_OF_PERICENTER":130.1674,"MEAN_ANOMALY":229.9663,"EPHEMERIS_TYPE":0,"CLASSIFICATION_TYPE":"U","NORAD_CAT_ID":68583,"ELEMENT_SET_NO":999,"REV_AT_EPOCH":170,"BSTAR":0.00027246694,"MEAN_MOTION_DOT":9.938e-5,"MEAN_MOTION_DDOT":0},{"OBJECT_NAME":"KUIPER-00253","OBJECT_ID":"2026-072M","EPOCH":"2026-04-15T05:21:21.241728","MEAN_MOTION":15.37486403,"ECCENTRICITY":0.00055903,"INCLINATION":51.8713,"RA_OF_ASC_NODE":121.4254,"ARG_OF_PERICENTER":138.2456,"MEAN_ANOMALY":221.8959,"EPHEMERIS_TYPE":0,"CLASSIFICATION_TYPE":"U","NORAD_CAT_ID":68584,"ELEMENT_SET_NO":999,"REV_AT_EPOCH":169,"BSTAR":0.00025228018,"MEAN_MOTION_DOT":9.042e-5,"MEAN_MOTION_DDOT":0},{"OBJECT_NAME":"KUIPER-00254","OBJECT_ID":"2026-072N","EPOCH":"2026-04-15T05:27:15.693408","MEAN_MOTION":15.36882979,"ECCENTRICITY":0.00076251,"INCLINATION":51.8717,"RA_OF_ASC_NODE":121.4515,"ARG_OF_PERICENTER":143.6573,"MEAN_ANOMALY":216.4933,"EPHEMERIS_TYPE":0,"CLASSIFICATION_TYPE":"U","NORAD_CAT_ID":68585,"ELEMENT_SET_NO":999,"REV_AT_EPOCH":169,"BSTAR":0.00018357723,"MEAN_MOTION_DOT":6.341e-5,"MEAN_MOTION_DDOT":0},{"OBJECT_NAME":"KUIPER-00263","OBJECT_ID":"2026-072P","EPOCH":"2026-04-15T06:44:15.243072","MEAN_MOTION":15.38466012,"ECCENTRICITY":0.00021337,"INCLINATION":51.8757,"RA_OF_ASC_NODE":121.0554,"ARG_OF_PERICENTER":75.7653,"MEAN_ANOMALY":284.3572,"EPHEMERIS_TYPE":0,"CLASSIFICATION_TYPE":"U","NORAD_CAT_ID":68586,"ELEMENT_SET_NO":999,"REV_AT_EPOCH":170,"BSTAR":0.00028634035,"MEAN_MOTION_DOT":0.00010659,"MEAN_MOTION_DDOT":0}]
